SatCatId,ObjectName,LaunchYear,OrbitalPeriod,LaunchMass,StatusCode,Inclination,Status,UcsData,OrbitClassEstimated,LaunchSiteCountry,Owner,UseType,Purpose,LaunchVehicleClass,TLE1,TLE2,MeanMotion,Eccentricity,OrbitClass
58714,STARLINK-31100,2024,95.69,-1.0,+,53.16,Active,0,LEO,USA,USA,Unknown,Unknown,Unknown,1 58714U 24002K   24180.24724068  .00001978  00000+0  15745-3 0  9990,2 58714  53.1576 165.0913 0001213  89.4060 270.7069 15.04937934 28076,15.04937934,0.0001213,LEO
58715,STARLINK-31102,2024,95.69,-1.0,+,53.16,Active,0,LEO,USA,USA,Unknown,Unknown,Unknown,1 58715U 24002L   24180.24403807  .00000867  00000+0  79904-4 0  9990,2 58715  53.1586 165.0733 0001298  86.8783 273.2356 15.04926411 27966,15.04926411,0.0001298,LEO
58716,STARLINK-31098,2024,95.69,-1.0,+,53.16,Active,0,LEO,USA,USA,Unknown,Unknown,Unknown,1 58716U 24002M   24180.24082101  .00000302  00000+0  40457-4 0  9996,2 58716  53.1583 165.0501 0001120  85.0485 275.0632 15.04926531 28030,15.04926531,0.000112,LEO
58717,STARLINK-31093,2024,95.69,-1.0,+,53.16,Active,0,LEO,USA,USA,Unknown,Unknown,Unknown,1 58717U 24002N   24180.28040722  .00000942  00000+0  85122-4 0  9992,2 58717  53.1594 164.6098 0001228  89.1970 270.9160 15.04929071 28078,15.04929071,0.0001228,LEO
58718,STARLINK-31097,2024,95.69,-1.0,+,53.16,Active,0,LEO,USA,USA,Unknown,Unknown,Unknown,1 58718U 24002P   24180.23760181  .00000827  00000+0  77155-4 0  9995,2 58718  53.1586 165.0318 0001117  90.3028 269.8089 15.04924130 28062,15.0492413,0.0001117,LEO
58719,STARLINK-31051,2024,95.69,-1.0,+,53.16,Active,0,LEO,USA,USA,Unknown,Unknown,Unknown,1 58719U 24002Q   24180.23438288  .00000952  00000+0  85887-4 0  9996,2 58719  53.1595 165.0086 0001145  95.4574 264.6546 15.04917608 28061,15.04917608,0.0001145,LEO
58720,STARLINK-31027,2024,95.69,-1.0,+,53.16,Active,0,LEO,USA,USA,Unknown,Unknown,Unknown,1 58720U 24002R   24180.23116745 -.00000289  00000+0 -85316-6 0  9993,2 58720  53.1595 164.9909 0001347  93.5600 266.5543 15.04921009 28066,15.04921009,0.0001347,LEO
58721,STARLINK-30972,2024,95.69,-1.0,+,53.16,Active,0,LEO,USA,USA,Unknown,Unknown,Unknown,1 58721U 24002S   24180.22794417  .00000193  00000+0  32828-4 0  9991,2 58721  53.1593 164.9687 0001141  89.0525 271.0595 15.04928574 28068,15.04928574,0.0001141,LEO
58722,STARLINK-31040,2024,95.69,-1.0,+,53.16,Active,0,LEO,USA,USA,Unknown,Unknown,Unknown,1 58722U 24002T   24180.22365519  .00000415  00000+0  48392-4 0  9999,2 58722  53.1583 164.9405 0001350  91.7796 268.3349 15.04922209 28063,15.04922209,0.000135,LEO
58723,STARLINK-31033,2024,95.69,-1.0,+,53.16,Active,0,LEO,USA,USA,Unknown,Unknown,Unknown,1 58723U 24002U   24180.27396960  .00000525  00000+0  56009-4 0  9995,2 58723  53.1586 164.5495 0000727  46.1969 313.9081 15.04924923 28071,15.04924923,7.27e-05,LEO
58724,STARLINK-30893,2024,95.69,-1.0,+,53.16,Active,0,LEO,USA,USA,Unknown,Unknown,Unknown,1 58724U 24002V   24180.22043685  .00000840  00000+0  78062-4 0  9997,2 58724  53.1587 164.9368 0001228  92.8465 267.2665 15.04922297 28062,15.04922297,0.0001228,LEO
58725,STARLINK-30856,2024,95.69,-1.0,+,53.16,Active,0,LEO,USA,USA,Unknown,Unknown,Unknown,1 58725U 24002W   24180.28362642  .00000654  00000+0  65040-4 0  9996,2 58725  53.1582 164.6115 0001152  80.6078 279.5042 15.04926784 28077,15.04926784,0.0001152,LEO
58728,STARLINK-31155,2024,95.84,-1.0,+,43.01,Active,0,LEO,USA,USA,Unknown,Unknown,Unknown,1 58728U 24005A   24180.16908249  .00006317  00000+0  48262-3 0  9996,2 58728  43.0082 347.5805 0001002 278.8292  81.2437 15.02507393 27247,15.02507393,0.0001002,LEO
58729,STARLINK-31115,2024,95.84,-1.0,+,43.0,Active,0,LEO,USA,USA,Unknown,Unknown,Unknown,1 58729U 24005B   24180.16575119  .00004122  00000+0  32020-3 0  9990,2 58729  43.0048 347.5442 0001016 269.7846  90.2880 15.02513752 27244,15.02513752,0.0001016,LEO
58730,STARLINK-31150,2024,93.46,-1.0,P,43.0,Active,0,LEO,USA,USA,Unknown,Unknown,Unknown,1 58730U 24005C   24180.00630023  .00001583  00000+0  45166-4 0  9995,2 58730  43.0003 281.5057 0002486 254.9586 105.0995 15.40701560 27986,15.4070156,0.0002486,LEO
58731,STARLINK-31204,2024,95.84,-1.0,+,43.0,Active,0,LEO,USA,USA,Unknown,Unknown,Unknown,1 58731U 24005D   24180.57606695  .00009827  00000+0  74128-3 0  9994,2 58731  43.0027 347.1766 0001134 286.1056  73.9661 15.02548775 27277,15.02548775,0.0001134,LEO
58732,STARLINK-31180,2024,95.84,-1.0,+,43.01,Active,0,LEO,USA,USA,Unknown,Unknown,Unknown,1 58732U 24005E   24180.19238228 -.00001043  00000+0 -62102-4 0  9990,2 58732  43.0056 347.7581 0002169 271.5675  88.4919 15.02533948 27245,15.02533948,0.0002169,LEO
58733,STARLINK-31164,2024,95.84,-1.0,+,43.0,Active,0,LEO,USA,USA,Unknown,Unknown,Unknown,1 58733U 24005F   24180.16252741  .00000407  00000+0  45206-4 0  9991,2 58733  43.0044 348.3820 0001477 261.4903  98.5772 15.02538388 27230,15.02538388,0.0001477,LEO
58734,STARLINK-31152,2024,95.84,-1.0,+,43.0,Active,0,LEO,USA,USA,Unknown,Unknown,Unknown,1 58734U 24005G   24180.15920172 -.00000214  00000+0 -79743-6 0  9994,2 58734  43.0047 348.3561 0001237 276.0968  83.9734 15.02535728 27223,15.02535728,0.0001237,LEO
58735,STARLINK-31157,2024,95.84,-1.0,+,43.0,Active,0,LEO,USA,USA,Unknown,Unknown,Unknown,1 58735U 24005H   24180.15586881  .00000088  00000+0  21602-4 0  9996,2 58735  43.0023 348.3343 0001066 268.9235  91.1485 15.02538937 27222,15.02538937,0.0001066,LEO
58736,STARLINK-31076,2024,95.84,-1.0,+,43.0,Active,0,LEO,USA,USA,Unknown,Unknown,Unknown,1 58736U 24005J   24180.15254001  .00000847  00000+0  77776-4 0  9999,2 58736  43.0039 348.3041 0000914 280.4717  79.6022 15.02534791 27266,15.02534791,9.14e-05,LEO
58737,STARLINK-31101,2024,95.84,-1.0,+,43.0,Active,0,LEO,USA,USA,Unknown,Unknown,Unknown,1 58737U 24005K   24180.81065661  .00001324  00000+0  11308-3 0  9994,2 58737  43.0039 344.6425 0001195 266.5180  93.5525 15.02538248 27335,15.02538248,0.0001195,LEO
58738,STARLINK-31108,2024,95.84,-1.0,+,43.0,Active,0,LEO,USA,USA,Unknown,Unknown,Unknown,1 58738U 24005L   24180.14921123 -.00000122  00000+0  60529-5 0  9992,2 58738  43.0029 348.2818 0001082 262.6265  97.4454 15.02536018 27211,15.02536018,0.0001082,LEO
58739,STARLINK-31042,2024,95.84,-1.0,+,43.0,Active,0,LEO,USA,USA,Unknown,Unknown,Unknown,1 58739U 24005M   24180.80732988  .00001074  00000+0  94584-4 0  9998,2 58739  43.0033 344.6164 0001058 269.9154  90.1567 15.02534787 27329,15.02534787,0.0001058,LEO
58740,STARLINK-31159,2024,95.84,-1.0,+,43.0,Active,0,LEO,USA,USA,Unknown,Unknown,Unknown,1 58740U 24005N   24179.80683549  .00000024  00000+0  16860-4 0  9991,2 58740  43.0033 350.0093 0000927 271.0108  89.0628 15.02532649 27274,15.02532649,9.27e-05,LEO
58741,STARLINK-31148,2024,95.84,-1.0,+,43.0,Active,0,LEO,USA,USA,Unknown,Unknown,Unknown,1 58741U 24005P   24180.80067140  .00000898  00000+0  81545-4 0  9998,2 58741  43.0017 344.5863 0001003 275.6030  84.4698 15.02536519 27322,15.02536519,0.0001003,LEO
58742,STARLINK-31151,2024,95.84,-1.0,+,43.0,Active,0,LEO,USA,USA,Unknown,Unknown,Unknown,1 58742U 24005Q   24180.79732956 -.00004747  00000+0 -33617-3 0  9996,2 58742  43.0107 344.5586 0003925 268.0902  91.9490 15.02568818 27425,15.02568818,0.0003925,LEO
58743,STARLINK-31156,2024,95.84,-1.0,+,43.0,Active,0,LEO,USA,USA,Unknown,Unknown,Unknown,1 58743U 24005R   24180.19571795 -.00000986  00000+0 -57981-4 0  9995,2 58743  43.0045 347.7818 0000673 257.8063 102.2704 15.02530324 27280,15.02530324,6.73e-05,LEO
58744,STARLINK-31167,2024,94.37,-1.0,+,43.0,Active,0,LEO,USA,USA,Unknown,Unknown,Unknown,1 58744U 24005S   24180.72036978  .00002161  00000+0  92506-4 0  9991,2 58744  43.0207 323.6040 0007514 264.7799  95.2195 15.25900809 27611,15.25900809,0.0007514,LEO
58745,STARLINK-31176,2024,95.84,-1.0,+,43.0,Active,0,LEO,USA,USA,Unknown,Unknown,Unknown,1 58745U 24005T   24180.78734908 -.00003095  00000+0 -21406-3 0  9995,2 58745  43.0039 344.4815 0000901 272.7770  87.2969 15.02554730 27328,15.0255473,9.01e-05,LEO
58746,STARLINK-31181,2024,94.37,-1.0,+,43.0,Active,0,LEO,USA,USA,Unknown,Unknown,Unknown,1 58746U 24005U   24180.69776635  .00002388  00000+0  10107-3 0  9997,2 58746  43.0022 323.4010 0001196 278.9479  81.1237 15.25922665 27610,15.25922665,0.0001196,LEO
58747,STARLINK-31183,2024,95.84,-1.0,+,43.0,Active,0,LEO,USA,USA,Unknown,Unknown,Unknown,1 58747U 24005V   24180.78069164  .00000924  00000+0  83453-4 0  9999,2 58747  43.0045 344.4338 0001343 264.6763  95.3926 15.02540773 27426,15.02540773,0.0001343,LEO
58748,STARLINK-31165,2024,95.84,-1.0,+,43.0,Active,0,LEO,USA,USA,Unknown,Unknown,Unknown,1 58748U 24005W   24180.18571767  .00001935  00000+0  15829-3 0  9995,2 58748  43.0030 347.7098 0001163 263.8131  96.2579 15.02540045 27235,15.02540045,0.0001163,LEO
58749,STARLINK-31160,2024,95.84,-1.0,+,43.0,Active,0,LEO,USA,USA,Unknown,Unknown,Unknown,1 58749U 24005X   24180.77402699  .00002279  00000+0  18379-3 0  9993,2 58749  43.0034 344.3144 0001124 261.4921  98.5794 15.02520791 27323,15.02520791,0.0001124,LEO
58750,STARLINK-31179,2024,95.84,-1.0,+,43.0,Active,0,LEO,USA,USA,Unknown,Unknown,Unknown,1 58750U 24005Y   24180.77736367  .00001714  00000+0  14194-3 0  9991,2 58750  43.0027 344.4056 0001122 263.8100  96.2614 15.02537020 27322,15.0253702,0.0001122,LEO
58753,EINSTEIN PROBE,2024,96.34,-1.0,+,29.0,Active,0,LEO,PRC,China,Unknown,Unknown,Unknown,1 58753U 24007A   24180.44930677  .00003747  00000+0  32476-3 0  9991,2 58753  28.9962 186.7351 0010857 261.7725  98.1640 14.94657647 25624,14.94657647,0.0010857,LEO
58755,NANOFF B,2023,95.78,-1.0,+,97.62,Active,0,LEO,USA,Germany,Unknown,Unknown,Unknown,1 58755U 23185S   24180.80035093  .00007012  00000+0  51871-3 0  9996,2 58755  97.6185 247.3066 0013902 238.6499 121.3366 15.03414407 25561,15.03414407,0.0013902,LEO
58756,TIANXING-1 02,2024,91.31,-1.0,+,95.1,Active,0,LEO,PRC,China,Unknown,Unknown,Unknown,1 58756U 24008A   24180.83684846  .00112646  00000+0  67890-3 0  9999,2 58756  95.1003 211.2297 0015222 118.9180 241.3621 15.77198252 26795,15.77198252,0.0015222,LEO
